{
    "links": {
        "self": "http://www.neowsapp.com/rest/v1/neo/3697177?api_key=iIulBulltgU6a56xZRHN4H3l9WmuAYTsLGpBGhQ2"
    },
    "id": "3697177",
    "neo_reference_id": "3697177",
    "name": "(2014 WG70)",
    "designation": "2014 WG70",
    "nasa_jpl_url": "http://ssd.jpl.nasa.gov/sbdb.cgi?sstr=3697177",
    "absolute_magnitude_h": 25.6,
    "estimated_diameter": {
        "kilometers": {
            "estimated_diameter_min": 0.0201629919,
            "estimated_diameter_max": 0.0450858206
        },
        "meters": {
            "estimated_diameter_min": 20.1629919443,
            "estimated_diameter_max": 45.0858206172
        },
        "miles": {
            "estimated_diameter_min": 0.0125286985,
            "estimated_diameter_max": 0.0280150214
        },
        "feet": {
            "estimated_diameter_min": 66.1515504905,
            "estimated_diameter_max": 147.9193637137
        }
    },
    "is_potentially_hazardous_asteroid": false,
    "close_approach_data": [
        {
            "close_approach_date": "2014-10-27",
            "close_approach_date_full": "2014-Oct-27 02:45",
            "epoch_date_close_approach": 1414377900000,
            "relative_velocity": {
                "kilometers_per_second": "8.698454083",
                "kilometers_per_hour": "31314.4346987963",
                "miles_per_hour": "19457.5719382604"
            },
            "miss_distance": {
                "astronomical": "0.0566675696",
                "lunar": "22.0436845744",
                "kilometers": "8477347.710236752",
                "miles": "5267579.6062290976"
            },
            "orbiting_body": "Earth"
        }
    ],
    "orbital_data": {
        "orbit_id": "3",
        "orbit_determination_date": "2017-04-06 08:37:21",
        "first_observation_date": "2014-11-17",
        "last_observation_date": "2014-11-21",
        "data_arc_in_days": 4,
        "observations_used": 8,
        "orbit_uncertainty": "9",
        "minimum_orbit_intersection": ".00929457",
        "jupiter_tisserand_invariant": "3.523",
        "epoch_osculation": "2456979.5",
        "eccentricity": ".5291597725184949",
        "semi_major_axis": "2.136134825471941",
        "inclination": ".6840869069224697",
        "ascending_node_longitude": "323.1952216937318",
        "orbital_period": "1140.358535205381",
        "perihelion_distance": "1.005778207156374",
        "perihelion_argument": "46.29014681821023",
        "aphelion_distance": "3.266491443787508",
        "perihelion_time": "2456939.476409927323",
        "mean_anomaly": "12.63505466161897",
        "mean_motion": ".3156901876787053",
        "equinox": "J2000",
        "orbit_class": {
            "orbit_class_type": "APO",
            "orbit_class_description": "Near-Earth asteroid orbits which cross the Earth’s orbit similar to that of 1862 Apollo",
            "orbit_class_range": "a (semi-major axis) > 1.0 AU; q (perihelion) < 1.017 AU"
        }
    },
    "is_sentry_object": false
}